[
    {
        "Altitude(m)": 562519.295042882,
        "Argument of Periapsis(deg)": 0.033114955553567506,
        "Eccentricity": 0.0,
        "Inclination(deg)": 53.0,
        "Latitude(deg)": -30.087590085629763,
        "Longitude(deg)": 45.27693369619415,
        "Mean Anomaly(deg)": -38.63283566211205,
        "RAAN(deg)": 174.9507168426401,
        "Satellite Name": "Starlink Shell 1 786",
        "Satellite Number": 786,
        "Semi-Major Axis(m)": 6931778.249405717,
        "Time(s)": 950
    },
    {
        "Altitude(m)": 562344.1279422204,
        "Argument of Periapsis(deg)": 0.03346353403307874,
        "Eccentricity": 0.0,
        "Inclination(deg)": 53.0,
        "Latitude(deg)": -29.634609614320873,
        "Longitude(deg)": 45.73467535350574,
        "Mean Anomaly(deg)": -38.00600445855528,
        "RAAN(deg)": 174.9501980725626,
        "Satellite Name": "Starlink Shell 1 786",
        "Satellite Number": 786,
        "Semi-Major Axis(m)": 6931778.249405717,
        "Time(s)": 960
    },
    {
        "Altitude(m)": 562169.1778807082,
        "Argument of Periapsis(deg)": 0.03381211251258998,
        "Eccentricity": 0.0,
        "Inclination(deg)": 53.0,
        "Latitude(deg)": -29.179723904993892,
        "Longitude(deg)": 46.18798020912226,
        "Mean Anomaly(deg)": -37.379173254998605,
        "RAAN(deg)": 174.94967930248515,
        "Satellite Name": "Starlink Shell 1 786",
        "Satellite Number": 786,
        "Semi-Major Axis(m)": 6931778.249405717,
        "Time(s)": 970
    },
    {
        "Altitude(m)": 561994.5101411141,
        "Argument of Periapsis(deg)": 0.034160690992101214,
        "Eccentricity": 0.0,
        "Inclination(deg)": 53.0,
        "Latitude(deg)": -28.722983002257354,
        "Longitude(deg)": 46.63695071584133,
        "Mean Anomaly(deg)": -36.752342051441865,
        "RAAN(deg)": 174.94916053240766,
        "Satellite Name": "Starlink Shell 1 786",
        "Satellite Number": 786,
        "Semi-Major Axis(m)": 6931778.249405717,
        "Time(s)": 980
    },
    {
        "Altitude(m)": 561820.1897336976,
        "Argument of Periapsis(deg)": 0.034509269471612446,
        "Eccentricity": 0.0,
        "Inclination(deg)": 53.0,
        "Latitude(deg)": -28.26443585710126,
        "Longitude(deg)": 47.08168853991137,
        "Mean Anomaly(deg)": -36.12551084788522,
        "RAAN(deg)": 174.94864176233023,
        "Satellite Name": "Starlink Shell 1 786",
        "Satellite Number": 786,
        "Semi-Major Axis(m)": 6931778.249405717,
        "Time(s)": 990
    }
]